[{"OBJECT_NAME":"TOMORROW-R2","OBJECT_ID":"2023-084AG","EPOCH":"2026-03-09T21:19:23.098656","MEAN_MOTION":15.71879583,"ECCENTRICITY":0.00051142,"INCLINATION":97.5895,"RA_OF_ASC_NODE":222.1734,"ARG_OF_PERICENTER":248.1295,"MEAN_ANOMALY":111.9424,"EPHEMERIS_TYPE":0,"CLASSIFICATION_TYPE":"U","NORAD_CAT_ID":56962,"ELEMENT_SET_NO":999,"REV_AT_EPOCH":15332,"BSTAR":0.00081619373,"MEAN_MOTION_DOT":0.00107013,"MEAN_MOTION_DDOT":0},{"OBJECT_NAME":"STARLINK-11378 [DTC]","OBJECT_ID":"2024-213N","EPOCH":"2026-03-09T04:54:47.814048","MEAN_MOTION":15.69740219,"ECCENTRICITY":0.0001391,"INCLINATION":53.1574,"RA_OF_ASC_NODE":43.3096,"ARG_OF_PERICENTER":52.3881,"MEAN_ANOMALY":307.7263,"EPHEMERIS_TYPE":0,"CLASSIFICATION_TYPE":"U","NORAD_CAT_ID":62020,"ELEMENT_SET_NO":999,"REV_AT_EPOCH":7484,"BSTAR":0.0012774727,"MEAN_MOTION_DOT":0.00157341,"MEAN_MOTION_DDOT":0}]
